NAVSTAR 48 (USA 151)    
1 26407U 00040A   26140.37351625  .00000009  00000+0  00000+0 0  9995
2 26407  54.8557 216.2671 0121373 302.3556  59.1031  2.00557405189398
NAVSTAR 51 (USA 166)    
1 27663U 03005A   26140.26428259  .00000011  00000+0  00000+0 0  9993
2 27663  54.8867 216.0784 0147967  53.0174   5.1878  2.00562004170754
NAVSTAR 54 (USA 177)    
1 28190U 04009A   26140.42144537 -.00000035  00000+0  00000+0 0  9993
2 28190  54.8536 276.8085 0114878 171.8356 153.6331  2.00555523162388
NAVSTAR 56 (USA 180)    
1 28474U 04045A   26140.51751950 -.00000073  00000+0  00000+0 0  9993
2 28474  55.1525 326.0102 0169838 315.6873 144.1699  2.00554536157874
NAVSTAR 57 (USA 183)    
1 28874U 05038A   26140.42808686 -.00000033  00000+0  00000+0 0  9995
2 28874  54.9017 274.2972 0127705 295.9826  61.7849  2.00567497151274
NAVSTAR 58 (USA 190)    
1 29486U 06042A   26140.18343903  .00000056  00000+0  00000+0 0  9994
2 29486  54.7064 152.4505 0106195  53.8185  25.3214  2.00571375143837
NAVSTAR 59 (USA 192)    
1 29601U 06052A   26138.00419502  .00000040  00000+0  00000+0 0  9994
2 29601  54.9389 215.2027 0085788  90.5584 270.4981  2.00556446142802
NAVSTAR 60 (USA 196)    
1 32260U 07047A   26140.30335456 -.00000013  00000+0  00000+0 0  9996
2 32260  54.0757  81.2145 0165863  86.8522 275.0168  2.00556531136257
NAVSTAR 61 (USA 199)    
1 32384U 07062A   26139.86947080 -.00000030  00000+0  00000+0 0  9990
2 32384  55.0554 275.2905 0035184 163.7724   9.9903  2.00558255134940
NAVSTAR 62 (USA 201)    
1 32711U 08012A   26140.21705566  .00000056  00000+0  00000+0 0  9999
2 32711  54.4928 151.0420 0210569 247.4726 110.3076  2.00571627133191
NAVSTAR 64 (USA 206)    
1 35752U 09043A   26139.95027565 -.00000082  00000+0  00000+0 0  9997
2 35752  56.1932  28.5608 0053428  82.0695  97.0936  2.00555666122791
NAVSTAR 65 (USA 213)    
1 36585U 10022A   26137.60907735  .00000049  00000+0  00000+0 0  9999
2 36585  54.2733 209.7940 0126408  66.1106 340.3358  2.00560837116987
NAVSTAR 67 (USA 239)    
1 38833U 12053A   26140.39650264  .00000054  00000+0  00000+0 0  9991
2 38833  53.5805 144.7377 0178861  65.4031 296.4622  2.00566990 98887
NAVSTAR 68 (USA 242)    
1 39166U 13023A   26140.26272252 -.00000030  00000+0  00000+0 0  9997
2 39166  54.5269 270.1108 0141779  50.8847 310.3557  2.00563555 95322
NAVSTAR 69 (USA 248)    
1 39533U 14008A   26140.26398110  .00000054  00000+0  00000+0 0  9996
2 39533  53.6495 150.4585 0084133 230.7604 128.5121  2.00557937 89124
NAVSTAR 70 (USA 251)    
1 39741U 14026A   26139.54226747 -.00000073  00000+0  00000+0 0  9994
2 39741  56.5117 332.6324 0038515 326.8833  32.8887  2.00563006 87967
NAVSTAR 71 (USA 256)    
1 40105U 14045A   26140.13212899  .00000003  00000+0  00000+0 0  9993
2 40105  55.3358  89.5822 0032291 118.5671 241.7267  2.00556445 85510
NAVSTAR 72 (USA 258)    
1 40294U 14068A   26140.00431397 -.00000078  00000+0  00000+0 0  9992
2 40294  56.9688  32.0407 0066232  69.5799 291.1702  2.00574345 84647
NAVSTAR 73 (USA 260)    
1 40534U 15013A   26140.14068464  .00000020  00000+0  00000+0 0  9992
2 40534  53.1703 205.3377 0109037  40.0219 320.8549  2.00553030 81266
NAVSTAR 74 (USA 262)    
1 40730U 15033A   26140.29973744 -.00000030  00000+0  00000+0 0  9996
2 40730  54.0050 268.2360 0115012  30.1069 330.5399  2.00557583 79436
NAVSTAR 75 (USA 265)    
1 41019U 15062A   26139.85830145 -.00000078  00000+0  00000+0 0  9998
2 41019  56.9411  31.9026 0111371 231.3358 127.7022  2.00567065 77267
NAVSTAR 76 (USA 266)    
1 41328U 16007A   26139.94740867  .00000005  00000+0  00000+0 0  9991
2 41328  55.5075  90.5786 0096074 247.2890 111.6621  2.00552906 75278
NAVSTAR 77 (USA 289)    
1 43873U 18109A   26140.26728968  .00000010  00000+0  00000+0 0  9994
2 43873  55.6661  93.2874 0037946 198.6335 285.8039  2.00560156 54518
NAVSTAR 78 (USA 293)    
1 44506U 19056A   26139.97084552 -.00000075  00000+0  00000+0 0  9992
2 44506  55.6508 332.2636 0060644 197.3914 335.8838  2.00569191 49508
NAVSTAR 79 (USA 304)    
1 45854U 20041A   26139.57960495 -.00000078  00000+0  00000+0 0  9993
2 45854  56.6519  30.0532 0062831 204.8599 345.4759  2.00559055 43465
NAVSTAR 80 (USA 309)    
1 46826U 20078A   26140.35447029  .00000012  00000+0  00000+0 0  9991
2 46826  53.9832 211.9075 0072304 206.3760 158.8802  2.00564764 40957
NAVSTAR 81 (USA 319)    
1 48859U 21054A   26137.34480044 -.00000068  00000+0  00000+0 0  9995
2 48859  55.1876 333.6992 0024566 229.1389 308.8619  2.00570739 36131
NAVSTAR 82 (USA 343)    
1 55268U 23009A   26139.54030612  .00000059  00000+0  00000+0 0  9994
2 55268  55.1178 149.6447 0006115 315.4942  45.7388  2.00573337 24675
NAVSTAR 83 (USA 440)    
1 62339U 24242A   26139.67433785 -.00000078  00000+0  00000+0 0  9995
2 62339  54.8610 335.3368 0017277   3.4958 177.0470  2.00570769 10680
NAVSTAR 84 (USA 545)    
1 64202U 25116A   26140.41655707 -.00000083  00000+0  00000+0 0  9997
2 64202  55.2172  32.2478 0008479 336.1133 202.6616  2.00577609  7312
NAVSTAR 85 (USA 581)    
1 67588U 26017A   26139.77935463  .00000002  00000+0  00000+0 0  9995
2 67588  55.0711  89.8949 0022793 256.0652 103.6488  2.00571618431043
